QIANFAN-17              
1 60395U 24140S   25346.28948287  .00000133  00000+0  18767-3 0  9990
2 60395  88.9771 299.4806 0013770 201.1098 158.9486 13.50976863 68072
QIANFAN-18              
1 60396U 24140T   25346.26890210  .00000126  00000+0  17570-3 0  9994
2 60396  88.9764 299.0163 0013637 182.4127 177.6961 13.50976783 67462
QIANFAN-19              
1 61552U 24185A   25346.30181064  .00000726  00000+0  37311-3 0  9994
2 61552  88.9822  77.9918 0005159 317.1937  42.8847 14.14295538 69606
QIANFAN-20              
1 61553U 24185B   25346.26164741  .00000879  00000+0  50110-3 0  9994
2 61553  88.9821  78.3198 0005358   5.8793 354.2453 14.08843419 69426
QIANFAN-21              
1 61554U 24185C   25346.25822589  .00001015  00000+0  44763-3 0  9995
2 61554  88.9737  77.0362 0010657  16.7414 343.4127 14.22607110 69904
QIANFAN-22              
1 61555U 24185D   25346.28451828  .00000289  00000+0  23874-3 0  9995
2 61555  88.9805  79.2963 0006393  15.5504 344.5862 13.86302761 68877
QIANFAN-23              
1 61556U 24185E   25346.27782324  .00000734  00000+0  36313-3 0  9990
2 61556  88.9814  77.8044 0006215 330.5878  29.4960 14.16292019 69685
QIANFAN-24              
1 61557U 24185F   25346.26130119  .00001032  00000+0  44504-3 0  9992
2 61557  88.9795  77.2121 0007521 306.1080  53.9415 14.23809832 69951
